{"type": "FeatureCollection", "features": [{"type": "Feature", "properties": {"norad_id": 28890, "name": "BEIJING 1", "group": "dmc", "lat": 6.590348884247646, "lon": -70.75983440622187, "alt_km": 674.1435583872244, "timestamp": "2025-12-06T18:50:09.837308+00:00", "meta": {"OBJECT_NAME": "BEIJING 1", "OBJECT_ID": "2005-043A", "EPOCH": "2025-12-06T08:12:04.341024", "MEAN_MOTION": 14.63357063, "ECCENTRICITY": 0.00150173, "INCLINATION": 98.2657, "RA_OF_ASC_NODE": 107.8338, "ARG_OF_PERICENTER": 160.7455, "MEAN_ANOMALY": 199.4317, "EPHEMERIS_TYPE": 0, "CLASSIFICATION_TYPE": "U", "NORAD_CAT_ID": 28890, "ELEMENT_SET_NO": 999, "REV_AT_EPOCH": 7244, "BSTAR": 0.00017331416, "MEAN_MOTION_DOT": 8.48e-06, "MEAN_MOTION_DDOT": 0}, "tle": {"line1": "1 28890U 05043A   25340.34171691  .00000848  00000+0  17331-3 0  9992", "line2": "2 28890  98.2657 107.8338 0015017 160.7455 199.4317 14.63357063 72447"}}, "geometry": {"type": "Point", "coordinates": [-70.75983440622187, 6.590348884247646]}}, {"type": "Feature", "properties": {"norad_id": 33320, "name": "HUANJING 1A (HJ-1A)", "group": "dmc", "lat": 46.80974154992963, "lon": 157.5674727962709, "alt_km": 611.9930591132224, "timestamp": "2025-12-06T18:50:09.837333+00:00", "meta": {"OBJECT_NAME": "HUANJING 1A (HJ-1A)", "OBJECT_ID": "2008-041A", "EPOCH": "2025-12-06T05:17:27.103776", "MEAN_MOTION": 14.83362358, "ECCENTRICITY": 0.00205278, "INCLINATION": 97.6533, "RA_OF_ASC_NODE": 328.7913, "ARG_OF_PERICENTER": 54.8735, "MEAN_ANOMALY": 305.4399, "EPHEMERIS_TYPE": 0, "CLASSIFICATION_TYPE": "U", "NORAD_CAT_ID": 33320, "ELEMENT_SET_NO": 999, "REV_AT_EPOCH": 92979, "BSTAR": 0.00035550207, "MEAN_MOTION_DOT": 2.874e-05, "MEAN_MOTION_DDOT": 0}, "tle": {"line1": "1 33320U 08041A   25340.22045259  .00002874  00000+0  35550-3 0  9998", "line2": "2 33320  97.6533 328.7913 0020527  54.8735 305.4399 14.83362358929799"}}, "geometry": {"type": "Point", "coordinates": [157.5674727962709, 46.80974154992963]}}, {"type": "Feature", "properties": {"norad_id": 33321, "name": "HUANJING 1B (HJ-1B)", "group": "dmc", "lat": 5.055633041289217, "lon": -27.63575809238037, "alt_km": 622.4549042447497, "timestamp": "2025-12-06T18:50:09.837347+00:00", "meta": {"OBJECT_NAME": "HUANJING 1B (HJ-1B)", "OBJECT_ID": "2008-041B", "EPOCH": "2025-12-06T05:51:23.936256", "MEAN_MOTION": 14.82795731, "ECCENTRICITY": 0.00382562, "INCLINATION": 97.6393, "RA_OF_ASC_NODE": 332.5278, "ARG_OF_PERICENTER": 96.3589, "MEAN_ANOMALY": 264.1984, "EPHEMERIS_TYPE": 0, "CLASSIFICATION_TYPE": "U", "NORAD_CAT_ID": 33321, "ELEMENT_SET_NO": 999, "REV_AT_EPOCH": 92981, "BSTAR": 0.00030443722, "MEAN_MOTION_DOT": 2.442e-05, "MEAN_MOTION_DDOT": 0}, "tle": {"line1": "1 33321U 08041B   25340.24402704  .00002442  00000+0  30444-3 0  9991", "line2": "2 33321  97.6393 332.5278 0038256  96.3589 264.1984 14.82795731929815"}}, "geometry": {"type": "Point", "coordinates": [-27.63575809238037, 5.055633041289217]}}, {"type": "Feature", "properties": {"norad_id": 33446, "name": "YAOGAN-4", "group": "dmc", "lat": -77.26659244582879, "lon": -51.04319234353285, "alt_km": 623.8548938802496, "timestamp": "2025-12-06T18:50:09.837359+00:00", "meta": {"OBJECT_NAME": "YAOGAN-4", "OBJECT_ID": "2008-061A", "EPOCH": "2025-12-06T06:14:16.558368", "MEAN_MOTION": 14.82651246, "ECCENTRICITY": 0.00141606, "INCLINATION": 97.9175, "RA_OF_ASC_NODE": 270.423, "ARG_OF_PERICENTER": 345.1979, "MEAN_ANOMALY": 14.8818, "EPHEMERIS_TYPE": 0, "CLASSIFICATION_TYPE": "U", "NORAD_CAT_ID": 33446, "ELEMENT_SET_NO": 999, "REV_AT_EPOCH": 91707, "BSTAR": 0.00037016546, "MEAN_MOTION_DOT": 2.935e-05, "MEAN_MOTION_DDOT": 0}, "tle": {"line1": "1 33446U 08061A   25340.25991387  .00002935  00000+0  37017-3 0  9992", "line2": "2 33446  97.9175 270.4230 0014160 345.1979  14.8818 14.82651246917071"}}, "geometry": {"type": "Point", "coordinates": [-51.04319234353285, -77.26659244582879]}}, {"type": "Feature", "properties": {"norad_id": 35681, "name": "DEIMOS-1", "group": "dmc", "lat": -35.164046918453614, "lon": -43.81477056471125, "alt_km": 652.7237039212778, "timestamp": "2025-12-06T18:50:09.837371+00:00", "meta": {"OBJECT_NAME": "DEIMOS-1", "OBJECT_ID": "2009-041A", "EPOCH": "2025-12-06T04:50:13.582176", "MEAN_MOTION": 14.74936951, "ECCENTRICITY": 0.00026894, "INCLINATION": 97.7153, "RA_OF_ASC_NODE": 141.1097, "ARG_OF_PERICENTER": 92.2308, "MEAN_ANOMALY": 267.921, "EPHEMERIS_TYPE": 0, "CLASSIFICATION_TYPE": "U", "NORAD_CAT_ID": 35681, "ELEMENT_SET_NO": 999, "REV_AT_EPOCH": 87843, "BSTAR": 0.00019979231, "MEAN_MOTION_DOT": 1.295e-05, "MEAN_MOTION_DDOT": 0}, "tle": {"line1": "1 35681U 09041A   25340.20154609  .00001295  00000+0  19979-3 0  9992", "line2": "2 35681  97.7153 141.1097 0002689  92.2308 267.9210 14.74936951878435"}}, "geometry": {"type": "Point", "coordinates": [-43.81477056471125, -35.164046918453614]}}, {"type": "Feature", "properties": {"norad_id": 35683, "name": "UK-DMC 2", "group": "dmc", "lat": -35.86328198973001, "lon": -69.87254012741067, "alt_km": 649.9693766223581, "timestamp": "2025-12-06T18:50:09.837382+00:00", "meta": {"OBJECT_NAME": "UK-DMC 2", "OBJECT_ID": "2009-041C", "EPOCH": "2025-12-06T06:28:02.921664", "MEAN_MOTION": 14.75600258, "ECCENTRICITY": 0.00013557, "INCLINATION": 97.8563, "RA_OF_ASC_NODE": 115.3554, "ARG_OF_PERICENTER": 102.6992, "MEAN_ANOMALY": 257.437, "EPHEMERIS_TYPE": 0, "CLASSIFICATION_TYPE": "U", "NORAD_CAT_ID": 35683, "ELEMENT_SET_NO": 999, "REV_AT_EPOCH": 87811, "BSTAR": 0.00032935109, "MEAN_MOTION_DOT": 2.198e-05, "MEAN_MOTION_DDOT": 0}, "tle": {"line1": "1 35683U 09041C   25340.26947826  .00002198  00000+0  32935-3 0  9991", "line2": "2 35683  97.8563 115.3554 0001355 102.6992 257.4370 14.75600258878113"}}, "geometry": {"type": "Point", "coordinates": [-69.87254012741067, -35.86328198973001]}}, {"type": "Feature", "properties": {"norad_id": 40715, "name": "DMC3-FM1", "group": "dmc", "lat": 54.24259780461379, "lon": -162.59285878882767, "alt_km": 606.0487765827729, "timestamp": "2025-12-06T18:50:09.837394+00:00", "meta": {"OBJECT_NAME": "DMC3-FM1", "OBJECT_ID": "2015-032A", "EPOCH": "2025-12-06T05:39:21.933792", "MEAN_MOTION": 14.8542356, "ECCENTRICITY": 0.00050933, "INCLINATION": 97.6704, "RA_OF_ASC_NODE": 207.665, "ARG_OF_PERICENTER": 344.7347, "MEAN_ANOMALY": 15.3714, "EPHEMERIS_TYPE": 0, "CLASSIFICATION_TYPE": "U", "NORAD_CAT_ID": 40715, "ELEMENT_SET_NO": 999, "REV_AT_EPOCH": 56126, "BSTAR": 0.00019178148, "MEAN_MOTION_DOT": 1.601e-05, "MEAN_MOTION_DDOT": 0}, "tle": {"line1": "1 40715U 15032A   25340.23567053  .00001601  00000+0  19178-3 0  9999", "line2": "2 40715  97.6704 207.6650 0005093 344.7347  15.3714 14.85423560561266"}}, "geometry": {"type": "Point", "coordinates": [-162.59285878882767, 54.24259780461379]}}, {"type": "Feature", "properties": {"norad_id": 40716, "name": "DMC3-FM2", "group": "dmc", "lat": -64.289669326554, "lon": -134.09937240250446, "alt_km": 617.0460723387159, "timestamp": "2025-12-06T18:50:09.837404+00:00", "meta": {"OBJECT_NAME": "DMC3-FM2", "OBJECT_ID": "2015-032B", "EPOCH": "2025-12-06T06:11:46.227552", "MEAN_MOTION": 14.85424829, "ECCENTRICITY": 0.00057305, "INCLINATION": 97.6761, "RA_OF_ASC_NODE": 209.1259, "ARG_OF_PERICENTER": 349.1381, "MEAN_ANOMALY": 10.971, "EPHEMERIS_TYPE": 0, "CLASSIFICATION_TYPE": "U", "NORAD_CAT_ID": 40716, "ELEMENT_SET_NO": 999, "REV_AT_EPOCH": 56126, "BSTAR": 0.00018976769, "MEAN_MOTION_DOT": 1.584e-05, "MEAN_MOTION_DDOT": 0}, "tle": {"line1": "1 40716U 15032B   25340.25817393  .00001584  00000+0  18977-3 0  9993", "line2": "2 40716  97.6761 209.1259 0005730 349.1381  10.9710 14.85424829561263"}}, "geometry": {"type": "Point", "coordinates": [-134.09937240250446, -64.289669326554]}}, {"type": "Feature", "properties": {"norad_id": 40717, "name": "DMC3-FM3", "group": "dmc", "lat": 0.5145577180759704, "lon": 31.332232121234558, "alt_km": 618.7485342768041, "timestamp": "2025-12-06T18:50:09.837415+00:00", "meta": {"OBJECT_NAME": "DMC3-FM3", "OBJECT_ID": "2015-032C", "EPOCH": "2025-12-06T06:42:50.881248", "MEAN_MOTION": 14.85416488, "ECCENTRICITY": 0.00050898, "INCLINATION": 97.6816, "RA_OF_ASC_NODE": 210.7755, "ARG_OF_PERICENTER": 351.1991, "MEAN_ANOMALY": 8.9134, "EPHEMERIS_TYPE": 0, "CLASSIFICATION_TYPE": "U", "NORAD_CAT_ID": 40717, "ELEMENT_SET_NO": 999, "REV_AT_EPOCH": 56127, "BSTAR": 0.00015728354, "MEAN_MOTION_DOT": 1.303e-05, "MEAN_MOTION_DDOT": 0}, "tle": {"line1": "1 40717U 15032C   25340.27975557  .00001303  00000+0  15728-3 0  9993", "line2": "2 40717  97.6816 210.7755 0005089 351.1991   8.9134 14.85416488561271"}}, "geometry": {"type": "Point", "coordinates": [31.332232121234558, 0.5145577180759704]}}]}